INTELSAT 11         [PM]
1 32253C 07044B   22047.85936343 -.00000179  00000-0  00000-0 0   478
2 32253   0.0080 118.5483 0002053 215.2125  79.4096  1.00273077    16
INTELSAT 11             
1 32253C 07044B   22048.00000000 -.00000178  00000-0  00000-0 0   488
2 32253   0.0082 118.3444 0002104 216.3969 129.1976  1.00273306    13
HORIZONS 2              
1 32388C 07063B   22044.92939815 -.00000096  00000-0  00000-0 0   445
2 32388   0.0060  85.8900 0003061 234.1036 243.3426  1.00271490    10
HORIZONS 2          [PM]
1 32388C 07063B   22047.58430556 -.00000092  00000-0  00000-0 0   477
2 32388   0.0092  99.5562 0003121 223.3319 118.8264  1.00272971    13
HORIZONS 2              
1 32388C 07063B   22048.00000000 -.00000092  00000-0  00000-0 0   483
2 32388   0.0096 100.5460 0003101 224.8941 266.3369  1.00273282    13
GALAXY 18               
1 32951C 08024A   22044.92939815  .00000117  00000-0  00000-0 0   442
2 32951   0.0163 202.4671 0003121 128.1987  24.8283  1.00270799    10
GALAXY 18           [PM]
1 32951C 08024A   22047.63054398  .00000121  00000-0  00000-0 0   475
2 32951   0.0000 147.1852 0003244 166.4340 296.9428  1.00271044    17
GALAXY 18               
1 32951C 08024A   22048.00000000  .00000111  00000-0  00000-0 0   488
2 32951   0.0031 163.0140 0003184 170.0842  50.8332  1.00265391    18
INTELSAT 25             
1 33153C 08034A   22044.92939815 -.00000134  00000-0  00000-0 0   448
2 33153   0.0193 125.2167 0003245 211.1451 110.6255  1.00270783    12
INTELSAT 25         [PM]
1 33153C 08034A   22047.88750000 -.00000134  00000-0  00000-0 0   476
2 33153   0.0120 172.6758 0003110 152.9008 109.2479  1.00272242    19
INTELSAT 25             
1 33153C 08034A   22048.00000000 -.00000134  00000-0  00000-0 0   480
2 33153   0.0194 190.8154 0003140 145.8417 138.7779  1.00272341    10
GALAXY 19               
1 33376C 08045A   22044.92939815 -.00000049  00000-0  00000-0 0   442
2 33376   0.0046 115.8317 0003392 205.0458  60.6125  1.00270538    18
GALAXY 19           [PM]
1 33376C 08045A   22047.87708333 -.00000049  00000-0  00000-0 0   471
2 33376   0.0084 122.0868 0003255 205.5849  37.8898  1.00271691    12
GALAXY 19               
1 33376C 08045A   22048.00000000 -.00000049  00000-0  00000-0 0   484
2 33376   0.0083 122.0548 0003268 205.6422  82.2356  1.00271766    14
INTELSAT 14             
1 36097C 09064A   22044.92939815 -.00000183  00000-0  00000-0 0   446
2 36097   0.0171 104.9341 0002775 221.6571 106.9070  1.00271327    10
INTELSAT 14         [PM]
1 36097C 09064A   22047.87710648 -.00000197  00000-0  00000-0 0   472
2 36097   0.0090 185.3238 0002530 143.2418  88.9839  1.00273545    12
INTELSAT 14             
1 36097C 09064A   22048.00000000  .00000212  00000-0  00000-0 0   480
2 36097   0.0083 183.8846 0002566 145.2201 132.8086  1.00273661    15
INTELSAT 15             
1 36106C 09067A   22044.92939815 -.00000096  00000-0  00000-0 0   443
2 36106   0.0019  76.9016 0002581 252.4864 234.2504  1.00271720    15
INTELSAT 15         [PM]
1 36106C 09067A   22047.51731482 -.00000096  00000-0  00000-0 0   474
2 36106   0.0037  97.2020 0002563 235.3747  85.2600  1.00272397    18
INTELSAT 15             
1 36106C 09067A   22048.00000000 -.00000097  00000-0  00000-0 0   486
2 36106   0.0043  98.8812 0002602 237.1342 256.0662  1.00272782    10
INTELSAT 16             
1 36397C 10006A   22044.92939815 -.00000234  00000-0  00000-0 0   444
2 36397   0.0021  86.6688 0002181 242.0946  73.5272  1.00270895    13
INTELSAT 16         [PM]
1 36397C 10006A   22047.00196759 -.00000234  00000-0  00000-0 0   471
2 36397   0.0044 101.1973 0002236 228.2164 101.0407  1.00272967    16
INTELSAT 16             
1 36397C 10006A   22048.00000000 -.00000230  00000-0  00000-0 0   482
2 36397   0.0055 104.3802 0002209 229.3607  96.9957  1.00272464    12
INTELSAT 17             
1 37238C 10065B   22044.92939815  .00000080  00000-0  00000-0 0   442
2 37238   0.0397 230.8196 0003148 103.1984 210.4771  1.00270716    12
INTELSAT 17         [PM]
1 37238C 10065B   22047.03885417  .00000089  00000-0  00000-0 0   477
2 37238   0.0305 198.3392 0002959 133.7914 253.8474  1.00271298    15
INTELSAT 17             
1 37238C 10065B   22048.00000000  .00000089  00000-0  00000-0 0   483
2 37238   0.0285 194.6346 0002985 141.6572 236.6449  1.00271449    16
INTELSAT NEW DAWN       
1 37392C 11016A   22044.92939815  .00000246  00000-0  00000-0 0   444
2 37392   0.0242 127.6355 0000989 352.2682  31.4042  1.00260585    19
INTELSAT NEW DAWN   [PM]
1 37392C 11016A   22046.84771991  .00000267  00000-0  00000-0 0   461
2 37392   0.0360 225.1195 0000454 246.2521  12.3829  1.00270368    18
INTELSAT NEW DAWN       
1 37392C 11016A   22048.00000000  .00000246  00000-0  00000-0 0   486
2 37392   0.0300 212.2174 0000659 243.0586  84.4335  1.00270949    16
INTELSAT 18             
1 37834C 11056A   22044.92939815  .00000142  00000-0  00000-0 0   444
2 37834   0.0185  55.5087 0002471 285.9952 316.9876  1.00270124    13
INTELSAT 18             
1 37834C 11056A   22048.00000000  .00000142  00000-0  00000-0 0   486
2 37834   0.0200  68.8337 0002570 281.7760 336.3176  1.00270195    14
INTELSAT 18         [PM]
1 37834C 11056A   22052.37436343  .00000138  00000-0  00000-0 0   524
2 37834   0.0373 340.3252 0002491  21.9039 103.7745  1.00273559    19
INTELSAT 22             
1 38098C 12011A   22044.92939815  .00000017  00000-0  00000-0 0   440
2 38098   0.0167 209.4199 0003168 111.0536 230.1197  1.00270149    11
INTELSAT 22         [PM]
1 38098C 12011A   22047.29050926  .00000047  00000-0  00000-0 0   476
2 38098   0.0427 274.2684 0003016  52.7397 355.9078  1.00271241    15
INTELSAT 22             
1 38098C 12011A   22048.00000000  .00000028  00000-0  00000-0 0   484
2 38098   0.0101 187.2621 0003039 142.2891 249.4809  1.00271715    12
INTELSAT 19             
1 38356C 12030A   22044.92939815  .00000033  00000-0  00000-0 0   446
2 38356   0.0059 109.2153 0003148 227.2448 308.0345  1.00271650    13
INTELSAT 19             
1 38356C 12030A   22048.00000000  .00000033  00000-0  00000-0 0   488
2 38356   0.0105 118.4248 0003179 217.3685 337.1438  1.00263591    10
INTELSAT 19         [PM]
1 38356C 12030A   22048.33832176  .00000033  00000-0  00000-0 0   481
2 38356   0.0121  97.5055 0003241 216.3029 121.2498  1.00270954    11
INTELSAT 20             
1 38740C 12043A   22045.00000000  .00000066  00000-0  00000-0 0   459
2 38740   0.0160 131.0981 0001416  66.0896  15.2882  1.00270609    13
INTELSAT 20             
1 38740C 12043A   22048.00000000  .00000066  00000-0  00000-0 0   485
2 38740   0.0156 143.6024 0001098  44.7803  27.0520  1.00270180    16
INTELSAT 20         [PM]
1 38740C 12043A   22049.16989583  .00000066  00000-0  00000-0 0   496
2 38740   0.0103 128.7467 0000953  38.4065 110.5929  1.00271988    10
INTELSAT 21             
1 38749C 12045A   22044.92939815 -.00000195  00000-0  00000-0 0   448
2 38749   0.0183 101.7150 0002341 218.1453 100.6376  1.00271577    18
INTELSAT 21         [PM]
1 38749C 12045A   22047.95964120  .00000072  00000-0  00000-0 0   477
2 38749   0.0040 175.0170 0002395 146.2813 113.0604  1.00272872    17
INTELSAT 21             
1 38749C 12045A   22048.00000000 -.00000285  00000-0  00000-0 0   480
2 38749   0.0038 174.7783 0002409 146.7446 127.4050  1.00272932    14
INTELSAT 23             
1 38867C 12057A   22044.92939815 -.00000198  00000-0  00000-0 0   445
2 38867   0.0415 246.2238 0001952  70.1326 109.1164  1.00272899    18
INTELSAT 23             
1 38867C 12057A   22048.00000000 -.00000195  00000-0  00000-0 0   484
2 38867   0.0300 212.6226 0001928 115.0116 126.2917  1.00270989    18
INTELSAT 23         [PM]
1 38867C 12057A   22048.02940972 -.00000195  00000-0  00000-0 0   487
2 38867   0.0574 273.6554 0001852  52.8863 138.0018  1.00270708    17
INTELSAT 30             
1 40271C 14062A   22045.00000000 -.00000132  00000-0  00000-0 0   459
2 40271   0.0000 128.9268 0001840 357.9731 282.0238  1.00270500    11
INTELSAT 30         [PM]
1 40271C 14062A   22047.28305556 -.00000115  00000-0  00000-0 0   478
2 40271   0.0454 287.7559 0001904 189.1220  36.1894  1.00273266    18
INTELSAT 30             
1 40271C 14062A   22048.00000000 -.00000051  00000-0  00000-0 0   485
2 40271   0.0000 145.6164 0001905 331.0600 295.2017  1.00271124    16
INTELSAT 34             
1 40874C 15039A   22045.00000000 -.00000267  00000-0  00000-0 0   452
2 40874   0.0146 355.0294 0001040 228.9773 224.4767  1.00271019    11
INTELSAT 34             
1 40874C 15039A   22048.00000000 -.00000266  00000-0  00000-0 0   487
2 40874   0.0211 238.9325 0000560 357.6973 214.8135  1.00269433    15
INTELSAT 34         [PM]
1 40874C 15039A   22048.23043982 -.00000301  00000-0  00000-0 0   488
2 40874   0.0206 232.7329 0000570 346.9717 314.9188  1.00273560    19
INTELSAT 31             
1 41581C 16035A   22045.00000000 -.00000061  00000-0  00000-0 0   457
2 41581   0.0271 210.0638 0002383 359.4773 199.3851  1.00270704    13
INTELSAT 31             
1 41581C 16035A   22048.00000000 -.00000061  00000-0  00000-0 0   483
2 41581   0.0294 217.2319 0002316 347.5227 207.1283  1.00269333    14
INTELSAT 31         [PM]
1 41581C 16035A   22048.39012732 -.00000061  00000-0  00000-0 0   480
2 41581   0.0234 205.5910 0002241 347.3765 359.7405  1.00272914    16
INTELSAT 36             
1 41747C 16053A   22045.00000000  .00000067  00000-0  00000-0 0   456
2 41747   0.0047  65.0830 0001163 261.2979 246.1080  1.00270912    19
INTELSAT 36             
1 41747C 16053A   22048.00000000  .00000063  00000-0  00000-0 0   488
2 41747   0.0000  86.7447 0001040 252.0729 236.6252  1.00270078    15
INTELSAT 36         [PM]
1 41747C 16053A   22049.71586806  .00000059  00000-0  00000-0 0   496
2 41747   0.0379 326.8507 0001096   5.2568 142.7383  1.00271402    13
